CCSDS_OMM_VERS = 2.0
CREATION_DATE  = 
ORIGINATOR     = 

OBJECT_NAME    = CONNECTA IOT-13
OBJECT_ID      = 2026-004AP
CENTER_NAME    = EARTH
REF_FRAME      = TEME
TIME_SYSTEM    = UTC
MEAN_ELEMENT_THEORY = SGP/SGP4

EPOCH          = 2026-02-02T13:28:53.646528
MEAN_MOTION    = 15.18355645
ECCENTRICITY   = .00110165
INCLINATION    = 97.4540
RA_OF_ASC_NODE = 34.6122
ARG_OF_PERICENTER = 94.8271
MEAN_ANOMALY   = 265.4221

EPHEMERIS_TYPE = 0
CLASSIFICATION_TYPE = U
NORAD_CAT_ID   = 67400
ELEMENT_SET_NO = 999
REV_AT_EPOCH   = 333
BSTAR          = .4747014E-3
MEAN_MOTION_DOT = .9703E-4
MEAN_MOTION_DDOT = 0

CCSDS_OMM_VERS = 2.0
CREATION_DATE  = 
ORIGINATOR     = 

OBJECT_NAME    = CONNECTA IOT-14
OBJECT_ID      = 2026-004AQ
CENTER_NAME    = EARTH
REF_FRAME      = TEME
TIME_SYSTEM    = UTC
MEAN_ELEMENT_THEORY = SGP/SGP4

EPOCH          = 2026-02-02T11:51:48.714912
MEAN_MOTION    = 15.18464909
ECCENTRICITY   = .0011584
INCLINATION    = 97.4471
RA_OF_ASC_NODE = 34.5342
ARG_OF_PERICENTER = 90.6940
MEAN_ANOMALY   = 269.5622

EPHEMERIS_TYPE = 0
CLASSIFICATION_TYPE = U
NORAD_CAT_ID   = 67401
ELEMENT_SET_NO = 999
REV_AT_EPOCH   = 332
BSTAR          = .50189279E-3
MEAN_MOTION_DOT = .10298E-3
MEAN_MOTION_DDOT = 0

CCSDS_OMM_VERS = 2.0
CREATION_DATE  = 
ORIGINATOR     = 

OBJECT_NAME    = CONNECTA IOT-15
OBJECT_ID      = 2026-004AR
CENTER_NAME    = EARTH
REF_FRAME      = TEME
TIME_SYSTEM    = UTC
MEAN_ELEMENT_THEORY = SGP/SGP4

EPOCH          = 2026-02-02T13:59:38.023872
MEAN_MOTION    = 15.16826860
ECCENTRICITY   = .00049616
INCLINATION    = 97.4544
RA_OF_ASC_NODE = 34.5860
ARG_OF_PERICENTER = 78.1467
MEAN_ANOMALY   = 282.0322

EPHEMERIS_TYPE = 0
CLASSIFICATION_TYPE = U
NORAD_CAT_ID   = 67402
ELEMENT_SET_NO = 999
REV_AT_EPOCH   = 332
BSTAR          = .27484672E-3
MEAN_MOTION_DOT = .5339E-4
MEAN_MOTION_DDOT = 0

CCSDS_OMM_VERS = 2.0
CREATION_DATE  = 
ORIGINATOR     = 

OBJECT_NAME    = SHIJIAN-29B (SJ-29B)
OBJECT_ID      = 2025-315C
CENTER_NAME    = EARTH
REF_FRAME      = TEME
TIME_SYSTEM    = UTC
MEAN_ELEMENT_THEORY = SGP/SGP4

EPOCH          = 2026-02-02T18:56:01.883616
MEAN_MOTION    = 1.00271541
ECCENTRICITY   = .000185
INCLINATION    = 3.0576
RA_OF_ASC_NODE = 98.6298
ARG_OF_PERICENTER = 309.4529
MEAN_ANOMALY   = 81.9904

EPHEMERIS_TYPE = 0
CLASSIFICATION_TYPE = U
NORAD_CAT_ID   = 67403
ELEMENT_SET_NO = 999
REV_AT_EPOCH   = 34
BSTAR          = 0
MEAN_MOTION_DOT = -.77E-6
MEAN_MOTION_DDOT = 0

CCSDS_OMM_VERS = 2.0
CREATION_DATE  = 
ORIGINATOR     = 

OBJECT_NAME    = STARLINK-36484
OBJECT_ID      = 2026-005A
CENTER_NAME    = EARTH
REF_FRAME      = TEME
TIME_SYSTEM    = UTC
MEAN_ELEMENT_THEORY = SGP/SGP4

EPOCH          = 2026-02-02T14:00:01.999872
MEAN_MOTION    = 15.49044944
ECCENTRICITY   = .00010597
INCLINATION    = 43.0000
RA_OF_ASC_NODE = 79.6109
ARG_OF_PERICENTER = 286.2839
MEAN_ANOMALY   = 255.1220

EPHEMERIS_TYPE = 0
CLASSIFICATION_TYPE = U
NORAD_CAT_ID   = 67404
ELEMENT_SET_NO = 999
REV_AT_EPOCH   = 449
BSTAR          = -.40699472E-1
MEAN_MOTION_DOT = -.2016902E-1
MEAN_MOTION_DDOT = 0

CCSDS_OMM_VERS = 2.0
CREATION_DATE  = 
ORIGINATOR     = 

OBJECT_NAME    = STARLINK-36452
OBJECT_ID      = 2026-005B
CENTER_NAME    = EARTH
REF_FRAME      = TEME
TIME_SYSTEM    = UTC
MEAN_ELEMENT_THEORY = SGP/SGP4

EPOCH          = 2026-02-02T14:00:01.999872
MEAN_MOTION    = 15.50571090
ECCENTRICITY   = .0001158
INCLINATION    = 43.0000
RA_OF_ASC_NODE = 79.6035
ARG_OF_PERICENTER = 284.5790
MEAN_ANOMALY   = 259.6574

EPHEMERIS_TYPE = 0
CLASSIFICATION_TYPE = U
NORAD_CAT_ID   = 67405
ELEMENT_SET_NO = 999
REV_AT_EPOCH   = 449
BSTAR          = -.32310256E-3
MEAN_MOTION_DOT = -.19244E-3
MEAN_MOTION_DDOT = 0

CCSDS_OMM_VERS = 2.0
CREATION_DATE  = 
ORIGINATOR     = 

OBJECT_NAME    = STARLINK-36409
OBJECT_ID      = 2026-005C
CENTER_NAME    = EARTH
REF_FRAME      = TEME
TIME_SYSTEM    = UTC
MEAN_ELEMENT_THEORY = SGP/SGP4

EPOCH          = 2026-02-02T14:00:01.999872
MEAN_MOTION    = 15.50662734
ECCENTRICITY   = .00019569
INCLINATION    = 43.0000
RA_OF_ASC_NODE = 79.5984
ARG_OF_PERICENTER = 301.7690
MEAN_ANOMALY   = 244.3003

EPHEMERIS_TYPE = 0
CLASSIFICATION_TYPE = U
NORAD_CAT_ID   = 67406
ELEMENT_SET_NO = 999
REV_AT_EPOCH   = 454
BSTAR          = -.21113767E-2
MEAN_MOTION_DOT = -.122657E-2
MEAN_MOTION_DDOT = 0

CCSDS_OMM_VERS = 2.0
CREATION_DATE  = 
ORIGINATOR     = 

OBJECT_NAME    = STARLINK-36510
OBJECT_ID      = 2026-005D
CENTER_NAME    = EARTH
REF_FRAME      = TEME
TIME_SYSTEM    = UTC
MEAN_ELEMENT_THEORY = SGP/SGP4

EPOCH          = 2026-02-02T14:00:01.999872
MEAN_MOTION    = 15.50667896
ECCENTRICITY   = .00019548
INCLINATION    = 43.0000
RA_OF_ASC_NODE = 79.5936
ARG_OF_PERICENTER = 300.4793
MEAN_ANOMALY   = 247.5137

EPHEMERIS_TYPE = 0
CLASSIFICATION_TYPE = U
NORAD_CAT_ID   = 67407
ELEMENT_SET_NO = 999
REV_AT_EPOCH   = 454
BSTAR          = -.23814926E-2
MEAN_MOTION_DOT = -.138062E-2
MEAN_MOTION_DDOT = 0

CCSDS_OMM_VERS = 2.0
CREATION_DATE  = 
ORIGINATOR     = 

OBJECT_NAME    = STARLINK-36509
OBJECT_ID      = 2026-005E
CENTER_NAME    = EARTH
REF_FRAME      = TEME
TIME_SYSTEM    = UTC
MEAN_ELEMENT_THEORY = SGP/SGP4

EPOCH          = 2026-02-02T14:00:01.999872
MEAN_MOTION    = 15.50571476
ECCENTRICITY   = .00011171
INCLINATION    = 43.0000
RA_OF_ASC_NODE = 79.5885
ARG_OF_PERICENTER = 285.3120
MEAN_ANOMALY   = 264.6741

EPHEMERIS_TYPE = 0
CLASSIFICATION_TYPE = U
NORAD_CAT_ID   = 67408
ELEMENT_SET_NO = 999
REV_AT_EPOCH   = 454
BSTAR          = -.32789905E-3
MEAN_MOTION_DOT = -.19524E-3
MEAN_MOTION_DDOT = 0

CCSDS_OMM_VERS = 2.0
CREATION_DATE  = 
ORIGINATOR     = 

OBJECT_NAME    = STARLINK-36507
OBJECT_ID      = 2026-005F
CENTER_NAME    = EARTH
REF_FRAME      = TEME
TIME_SYSTEM    = UTC
MEAN_ELEMENT_THEORY = SGP/SGP4

EPOCH          = 2026-02-02T14:00:01.999872
MEAN_MOTION    = 15.50581452
ECCENTRICITY   = .00018154
INCLINATION    = 43.0001
RA_OF_ASC_NODE = 79.5843
ARG_OF_PERICENTER = 305.7359
MEAN_ANOMALY   = 246.0815

EPHEMERIS_TYPE = 0
CLASSIFICATION_TYPE = U
NORAD_CAT_ID   = 67409
ELEMENT_SET_NO = 999
REV_AT_EPOCH   = 454
BSTAR          = .62987231E-3
MEAN_MOTION_DOT = .36787E-3
MEAN_MOTION_DDOT = 0

CCSDS_OMM_VERS = 2.0
CREATION_DATE  = 
ORIGINATOR     = 

OBJECT_NAME    = STARLINK-36508
OBJECT_ID      = 2026-005G
CENTER_NAME    = EARTH
REF_FRAME      = TEME
TIME_SYSTEM    = UTC
MEAN_ELEMENT_THEORY = SGP/SGP4

EPOCH          = 2026-02-02T14:00:01.999872
MEAN_MOTION    = 15.50629953
ECCENTRICITY   = .00012574
INCLINATION    = 43.0001
RA_OF_ASC_NODE = 79.5798
ARG_OF_PERICENTER = 275.6991
MEAN_ANOMALY   = 278.0991

EPHEMERIS_TYPE = 0
CLASSIFICATION_TYPE = U
NORAD_CAT_ID   = 67410
ELEMENT_SET_NO = 999
REV_AT_EPOCH   = 454
BSTAR          = -.24420868E-2
MEAN_MOTION_DOT = -.141306E-2
MEAN_MOTION_DDOT = 0

CCSDS_OMM_VERS = 2.0
CREATION_DATE  = 
ORIGINATOR     = 

OBJECT_NAME    = STARLINK-36503
OBJECT_ID      = 2026-005H
CENTER_NAME    = EARTH
REF_FRAME      = TEME
TIME_SYSTEM    = UTC
MEAN_ELEMENT_THEORY = SGP/SGP4

EPOCH          = 2026-02-02T14:00:01.999872
MEAN_MOTION    = 15.50574303
ECCENTRICITY   = .00011699
INCLINATION    = 43.0000
RA_OF_ASC_NODE = 79.5739
ARG_OF_PERICENTER = 286.9109
MEAN_ANOMALY   = 268.8232

EPHEMERIS_TYPE = 0
CLASSIFICATION_TYPE = U
NORAD_CAT_ID   = 67411
ELEMENT_SET_NO = 999
REV_AT_EPOCH   = 428
BSTAR          = -.36296298E-3
MEAN_MOTION_DOT = -.21572E-3
MEAN_MOTION_DDOT = 0

