CONNECTA IOT-13         
1 67400U 26004AP  26033.56173202  .00009703  00000+0  47470-3 0  9992
2 67400  97.4540  34.6122 0011016  94.8271 265.4221 15.18355645  3330
CONNECTA IOT-14         
1 67401U 26004AQ  26033.49431383  .00010298  00000+0  50189-3 0  9994
2 67401  97.4471  34.5342 0011584  90.6940 269.5622 15.18464909  3327
CONNECTA IOT-15         
1 67402U 26004AR  26033.58307898  .00005339  00000+0  27485-3 0  9991
2 67402  97.4544  34.5860 0004961  78.1467 282.0322 15.16826860  3323
SHIJIAN-29B (SJ-29B)    
1 67403U 25315C   26033.78891069 -.00000077  00000+0  00000+0 0  9991
2 67403   3.0576  98.6298 0001850 309.4529  81.9904  1.00271541   340
STARLINK-36484          
1 67404U 26005A   26033.58335648 -.02016902  00000+0 -40699-1 0  9990
2 67404  43.0000  79.6109 0001059 286.2839 255.1220 15.49044944  4493
STARLINK-36452          
1 67405U 26005B   26033.58335648 -.00019244  00000+0 -32310-3 0  9994
2 67405  43.0000  79.6035 0001158 284.5790 259.6574 15.50571090  4499
STARLINK-36409          
1 67406U 26005C   26033.58335648 -.00122657  00000+0 -21114-2 0  9997
2 67406  43.0000  79.5984 0001956 301.7690 244.3003 15.50662734  4549
STARLINK-36510          
1 67407U 26005D   26033.58335648 -.00138062  00000+0 -23815-2 0  9995
2 67407  43.0000  79.5936 0001954 300.4793 247.5137 15.50667896  4542
STARLINK-36509          
1 67408U 26005E   26033.58335648 -.00019524  00000+0 -32790-3 0  9990
2 67408  43.0000  79.5885 0001117 285.3120 264.6741 15.50571476  4541
STARLINK-36507          
1 67409U 26005F   26033.58335648  .00036787  00000+0  62987-3 0  9990
2 67409  43.0001  79.5843 0001815 305.7359 246.0815 15.50581452  4544
STARLINK-36508          
1 67410U 26005G   26033.58335648 -.00141306  00000+0 -24421-2 0  9998
2 67410  43.0001  79.5798 0001257 275.6991 278.0991 15.50629953  4541
STARLINK-36503          
1 67411U 26005H   26033.58335648 -.00021572  00000+0 -36296-3 0  9995
2 67411  43.0000  79.5739 0001169 286.9109 268.8232 15.50574303  4288
